[{"OBJECT_NAME":"SITRO-AIS 26","OBJECT_ID":"2024-039S","EPOCH":"2026-03-09T23:26:14.805600","MEAN_MOTION":14.92446154,"ECCENTRICITY":0.01456696,"INCLINATION":95.3934,"RA_OF_ASC_NODE":166.8629,"ARG_OF_PERICENTER":315.8086,"MEAN_ANOMALY":43.1576,"EPHEMERIS_TYPE":0,"CLASSIFICATION_TYPE":"U","NORAD_CAT_ID":59067,"ELEMENT_SET_NO":999,"REV_AT_EPOCH":10991,"BSTAR":0.00034113831,"MEAN_MOTION_DOT":4.263e-5,"MEAN_MOTION_DDOT":0},{"OBJECT_NAME":"TIROS 6 DEB","OBJECT_ID":"1962-047F","EPOCH":"2026-02-26T12:33:51.606144","MEAN_MOTION":14.85735462,"ECCENTRICITY":0.000895,"INCLINATION":58.308,"RA_OF_ASC_NODE":80.7183,"ARG_OF_PERICENTER":159.6882,"MEAN_ANOMALY":200.4519,"EPHEMERIS_TYPE":0,"CLASSIFICATION_TYPE":"U","NORAD_CAT_ID":29006,"ELEMENT_SET_NO":999,"REV_AT_EPOCH":68518,"BSTAR":9.0328e-5,"MEAN_MOTION_DOT":5.8e-6,"MEAN_MOTION_DDOT":0}]
